{"type": "FeatureCollection", "features": [ {"type": "Feature", "properties": {"norad_id": 66589, "name": "STARLINK-35447", "group": "last-30-days", "lat": 39.02742180905429, "lon": -94.43744360020096, "alt_km": 409.0252683631652, "timestamp": "2025-12-10T14:53:35.946975+00:00", "meta": {"OBJECT_NAME": "STARLINK-35447", "OBJECT_ID": "2025-270B", "EPOCH": "2025-12-10T06:00:02.000160", "MEAN_MOTION": 15.52660807, "ECCENTRICITY": 0.00012761, "INCLINATION": 43.0001, "RA_OF_ASC_NODE": 207.2923, "ARG_OF_PERICENTER": 261.3217, "MEAN_ANOMALY": 253.7439, "EPHEMERIS_TYPE": 0, "CLASSIFICATION_TYPE": "U", "NORAD_CAT_ID": 66589, "ELEMENT_SET_NO": 999, "REV_AT_EPOCH": 410, "BSTAR": -0.03845323, "MEAN_MOTION_DOT": -0.02153227, "MEAN_MOTION_DDOT": 0}, "tle": {"line1": "1 66589U 25270B   25344.25002315 -.02153227  00000+0 -38453-1 0  9993", "line2": "2 66589  43.0001 207.2923 0001276 261.3217 253.7439 15.52660807  4105"}}, "geometry": {"type": "Point", "coordinates": [-94.43744360020096, 39.02742180905429]}}, {"type": "Feature", "properties": {"norad_id": 66590, "name": "STARLINK-35429", "group": "last-30-days", "lat": 38.35638031041487, "lon": -96.74727352388659, "alt_km": 409.3093715277755, "timestamp": "2025-12-10T14:53:35.946984+00:00", "meta": {"OBJECT_NAME": "STARLINK-35429", "OBJECT_ID": "2025-270C", "EPOCH": "2025-12-10T06:00:02.000160", "MEAN_MOTION": 15.52648011, "ECCENTRICITY": 0.00015175, "INCLINATION": 43, "RA_OF_ASC_NODE": 207.2966, "ARG_OF_PERICENTER": 259.035, "MEAN_ANOMALY": 254.1175, "EPHEMERIS_TYPE": 0, "CLASSIFICATION_TYPE": "U", "NORAD_CAT_ID": 66590, "ELEMENT_SET_NO": 999, "REV_AT_EPOCH": 410, "BSTAR": -0.038288256, "MEAN_MOTION_DOT": -0.02144319, "MEAN_MOTION_DDOT": 0}, "tle": {"line1": "1 66590U 25270C   25344.25002315 -.02144319  00000+0 -38288-1 0  9993", "line2": "2 66590  43.0000 207.2966 0001517 259.0350 254.1175 15.52648011  4108"}}, "geometry": {"type": "Point", "coordinates": [-96.74727352388659, 38.35638031041487]}}, {"type": "Feature", "properties": {"norad_id": 66591, "name": "STARLINK-36058", "group": "last-30-days", "lat": 39.64702593815898, "lon": -92.10404854897696, "alt_km": 409.137902383809, "timestamp": "2025-12-10T14:53:35.946995+00:00", "meta": {"OBJECT_NAME": "STARLINK-36058", "OBJECT_ID": "2025-270D", "EPOCH": "2025-12-10T06:00:02.000160", "MEAN_MOTION": 15.52644439, "ECCENTRICITY": 0.00015294, "INCLINATION": 42.9999, "RA_OF_ASC_NODE": 207.2868, "ARG_OF_PERICENTER": 259.765, "MEAN_ANOMALY": 257.2263, "EPHEMERIS_TYPE": 0, "CLASSIFICATION_TYPE": "U", "NORAD_CAT_ID": 66591, "ELEMENT_SET_NO": 999, "REV_AT_EPOCH": 400, "BSTAR": -0.038267488, "MEAN_MOTION_DOT": -0.02143049, "MEAN_MOTION_DDOT": 0}, "tle": {"line1": "1 66591U 25270D   25344.25002315 -.02143049  00000+0 -38267-1 0  9990", "line2": "2 66591  42.9999 207.2868 0001529 259.7650 257.2263 15.52644439  4009"}}, "geometry": {"type": "Point", "coordinates": [-92.10404854897696, 39.64702593815898]}}, {"type": "Feature", "properties": {"norad_id": 66592, "name": "STARLINK-36066", "group": "last-30-days", "lat": 40.220923895484475, "lon": -89.72154709186688, "alt_km": 409.04328312705184, "timestamp": "2025-12-10T14:53:35.947005+00:00", "meta": {"OBJECT_NAME": "STARLINK-36066", "OBJECT_ID": "2025-270E", "EPOCH": "2025-12-10T06:00:02.000160", "MEAN_MOTION": 15.52647212, "ECCENTRICITY": 0.00015154, "INCLINATION": 43, "RA_OF_ASC_NODE": 207.2822, "ARG_OF_PERICENTER": 259.7608, "MEAN_ANOMALY": 259.144, "EPHEMERIS_TYPE": 0, "CLASSIFICATION_TYPE": "U", "NORAD_CAT_ID": 66592, "ELEMENT_SET_NO": 999, "REV_AT_EPOCH": 390, "BSTAR": -0.038291643, "MEAN_MOTION_DOT": -0.0214443, "MEAN_MOTION_DDOT": 0}, "tle": {"line1": "1 66592U 25270E   25344.25002315 -.02144430  00000+0 -38292-1 0  9994", "line2": "2 66592  43.0000 207.2822 0001515 259.7608 259.1440 15.52647212  3901"}}, "geometry": {"type": "Point", "coordinates": [-89.72154709186688, 40.220923895484475]}}, {"type": "Feature", "properties": {"norad_id": 66593, "name": "STARLINK-36031", "group": "last-30-days", "lat": 40.74814479395706, "lon": -87.28397737120929, "alt_km": 408.8276332769683, "timestamp": "2025-12-10T14:53:35.947014+00:00", "meta": {"OBJECT_NAME": "STARLINK-36031", "OBJECT_ID": "2025-270F", "EPOCH": "2025-12-10T06:00:02.000160", "MEAN_MOTION": 15.52694969, "ECCENTRICITY": 0.00012475, "INCLINATION": 43, "RA_OF_ASC_NODE": 207.2777, "ARG_OF_PERICENTER": 251.1344, "MEAN_ANOMALY": 269.6756, "EPHEMERIS_TYPE": 0, "CLASSIFICATION_TYPE": "U", "NORAD_CAT_ID": 66593, "ELEMENT_SET_NO": 999, "REV_AT_EPOCH": 400, "BSTAR": -0.039453118, "MEAN_MOTION_DOT": -0.02205044, "MEAN_MOTION_DDOT": 0}, "tle": {"line1": "1 66593U 25270F   25344.25002315 -.02205044  00000+0 -39453-1 0  9994", "line2": "2 66593  43.0000 207.2777 0001247 251.1344 269.6756 15.52694969  4005"}}, "geometry": {"type": "Point", "coordinates": [-87.28397737120929, 40.74814479395706]}}, {"type": "Feature", "properties": {"norad_id": 66594, "name": "STARLINK-36032", "group": "last-30-days", "lat": 41.21898108291504, "lon": -84.83125595707574, "alt_km": 408.752051307697, "timestamp": "2025-12-10T14:53:35.947045+00:00", "meta": {"OBJECT_NAME": "STARLINK-36032", "OBJECT_ID": "2025-270G", "EPOCH": "2025-12-10T06:00:02.000160", "MEAN_MOTION": 15.52660377, "ECCENTRICITY": 0.00013138, "INCLINATION": 42.9998, "RA_OF_ASC_NODE": 207.273, "ARG_OF_PERICENTER": 259.7563, "MEAN_ANOMALY": 262.9781, "EPHEMERIS_TYPE": 0, "CLASSIFICATION_TYPE": "U", "NORAD_CAT_ID": 66594, "ELEMENT_SET_NO": 999, "REV_AT_EPOCH": 373, "BSTAR": -0.038483912, "MEAN_MOTION_DOT": -0.02154744, "MEAN_MOTION_DDOT": 0}, "tle": {"line1": "1 66594U 25270G   25344.25002315 -.02154744  00000+0 -38484-1 0  9998", "line2": "2 66594  42.9998 207.2730 0001313 259.7563 262.9781 15.52660377  3739"}}, "geometry": {"type": "Point", "coordinates": [-84.83125595707574, 41.21898108291504]}}, {"type": "Feature", "properties": {"norad_id": 66595, "name": "STARLINK-35711", "group": "last-30-days", "lat": 41.63914177836065, "lon": -82.33341798110494, "alt_km": 408.73027672819353, "timestamp": "2025-12-10T14:53:35.947056+00:00", "meta": {"OBJECT_NAME": "STARLINK-35711", "OBJECT_ID": "2025-270H", "EPOCH": "2025-12-10T06:00:02.000160", "MEAN_MOTION": 15.52697653, "ECCENTRICITY": 0.00013067, "INCLINATION": 43, "RA_OF_ASC_NODE": 207.2677, "ARG_OF_PERICENTER": 249.0371, "MEAN_ANOMALY": 275.6063, "EPHEMERIS_TYPE": 0, "CLASSIFICATION_TYPE": "U", "NORAD_CAT_ID": 66595, "ELEMENT_SET_NO": 999, "REV_AT_EPOCH": 410, "BSTAR": -0.039553857, "MEAN_MOTION_DOT": -0.02210242, "MEAN_MOTION_DDOT": 0}, "tle": {"line1": "1 66595U 25270H   25344.25002315 -.02210242  00000+0 -39554-1 0  9994", "line2": "2 66595  43.0000 207.2677 0001306 249.0371 275.6063 15.52697653  4100"}}, "geometry": {"type": "Point", "coordinates": [-82.33341798110494, 41.63914177836065]}}, {"type": "Feature", "properties": {"norad_id": 66596, "name": "STARLINK-35811", "group": "last-30-days", "lat": 42.00270361256771, "lon": -79.81335046923449, "alt_km": 408.6420116027175, "timestamp": "2025-12-10T14:53:35.947065+00:00", "meta": {"OBJECT_NAME": "STARLINK-35811", "OBJECT_ID": "2025-270J", "EPOCH": "2025-12-10T06:00:02.000160", "MEAN_MOTION": 15.52659737, "ECCENTRICITY": 0.00013235, "INCLINATION": 42.9998, "RA_OF_ASC_NODE": 207.2631, "ARG_OF_PERICENTER": 261.0062, "MEAN_ANOMALY": 265.5632, "EPHEMERIS_TYPE": 0, "CLASSIFICATION_TYPE": "U", "NORAD_CAT_ID": 66596, "ELEMENT_SET_NO": 999, "REV_AT_EPOCH": 410, "BSTAR": -0.038460732, "MEAN_MOTION_DOT": -0.02153556, "MEAN_MOTION_DDOT": 0}, "tle": {"line1": "1 66596U 25270J   25344.25002315 -.02153556  00000+0 -38461-1 0  9995", "line2": "2 66596  42.9998 207.2631 0001323 261.0062 265.5632 15.52659737  4106"}}, "geometry": {"type": "Point", "coordinates": [-79.81335046923449, 42.00270361256771]}}, {"type": "Feature", "properties": {"norad_id": 66597, "name": "STARLINK-35820", "group": "last-30-days", "lat": 42.31130215648147, "lon": -77.26080866559641, "alt_km": 408.5660875016092, "timestamp": "2025-12-10T14:53:35.947073+00:00", "meta": {"OBJECT_NAME": "STARLINK-35820", "OBJECT_ID": "2025-270K", "EPOCH": "2025-12-10T06:00:02.000160", "MEAN_MOTION": 15.52669613, "ECCENTRICITY": 0.00012702, "INCLINATION": 42.9999, "RA_OF_ASC_NODE": 207.2582, "ARG_OF_PERICENTER": 257.2747, "MEAN_ANOMALY": 271.2087, "EPHEMERIS_TYPE": 0, "CLASSIFICATION_TYPE": "U", "NORAD_CAT_ID": 66597, "ELEMENT_SET_NO": 999, "REV_AT_EPOCH": 410, "BSTAR": -0.03868456, "MEAN_MOTION_DOT": -0.02165299, "MEAN_MOTION_DDOT": 0}, "tle": {"line1": "1 66597U 25270K   25344.25002315 -.02165299  00000+0 -38685-1 0  9991", "line2": "2 66597  42.9999 207.2582 0001270 257.2747 271.2087 15.52669613  4103"}}, "geometry": {"type": "Point", "coordinates": [-77.26080866559641, 42.31130215648147]}}, {"type": "Feature", "properties": {"norad_id": 66598, "name": "STARLINK-35981", "group": "last-30-days", "lat": 42.56292286302705, "lon": -74.68016854624166, "alt_km": 408.5803291142647, "timestamp": "2025-12-10T14:53:35.947083+00:00", "meta": {"OBJECT_NAME": "STARLINK-35981", "OBJECT_ID": "2025-270L", "EPOCH": "2025-12-10T06:00:02.000160", "MEAN_MOTION": 15.52716582, "ECCENTRICITY": 0.00012863, "INCLINATION": 42.9999, "RA_OF_ASC_NODE": 207.2531, "ARG_OF_PERICENTER": 250.8639, "MEAN_ANOMALY": 279.5244, "EPHEMERIS_TYPE": 0, "CLASSIFICATION_TYPE": "U", "NORAD_CAT_ID": 66598, "ELEMENT_SET_NO": 999, "REV_AT_EPOCH": 384, "BSTAR": -0.040039107, "MEAN_MOTION_DOT": -0.0223546, "MEAN_MOTION_DDOT": 0}, "tle": {"line1": "1 66598U 25270L   25344.25002315 -.02235460  00000+0 -40039-1 0  9996", "line2": "2 66598  42.9999 207.2531 0001286 250.8639 279.5244 15.52716582  3848"}}, "geometry": {"type": "Point", "coordinates": [-74.68016854624166, 42.56292286302705]}}]}